P/2022 S1 (PANSTARRS),e,34.5660,136.0891,262.8498,6.408776,0.0607493,0.50756632,65.9760,08/09.0/2025,2000,g 15.1,4.0
# From MPEC 2022-VC5
C/2022 S3 (PANSTARRS),h,01/21.6080/2023,78.4766,157.2428,267.9900,1.000380,0.838871,2000,17.0,4.0
# From MPC185657
C/2022 S4 (Lemmon),e,101.2138,220.1789,268.5625,1421,0.0000184,0.99805675,0.0000,07/18.7899/2024,2000,g  8.0,4.0
# From MPEC 2023-HD1
C/2022 S5 (PANSTARRS),e,136.5083,214.8655,232.7966,20.52031,0.0106030,0.89387635,10.4459,08/09.0/2025,2000,g 16.3,4.0
# From MPEC 2024-O39
C/2022 T1 (Lemmon),h,02/17.4442/2024,22.5417,236.9147,324.2914,1.000395,3.444154,2000,9.0,4.0
# From MPEC 2025-PB3
C/2022 U1 (Leonard),h,03/26.1196/2024,128.1477,72.5283,78.6153,1.000309,4.202277,2000,8.5,4.0
# From MPEC 2023-VM5
C/2022 U2 (ATLAS),e,48.2508,304.3986,148.0192,98.43950,0.0010091,0.98649049,0.0000,01/14.2748/2023,2000,g 16.0,4.0
# From MPC182880
C/2022 U3 (Bok),h,07/28.6626/2024,33.6615,272.7877,189.1358,1.000018,4.826961,2000,7.5,4.0
# From MPEC 2023-W26
C/2022 U4 (Bok),e,52.0545,132.9166,88.9822,2886,0.0000064,0.99899609,0.0000,08/03.6479/2023,2000,g 10.5,4.0
# From MPEC 2024-H50
C/2022 V2 (Lemmon),e,98.9029,332.8513,168.9557,36.63667,0.0044446,0.94365402,2.8719,08/09.0/2025,2000,g 12.0,4.0
# From MPEC 2023-CD7
P/2022 W1 (Rankin),e,13.4637,38.8311,17.9374,6.975857,0.0534943,0.51644033,56.5906,08/09.0/2025,2000,g 12.5,4.0
# From MPEC 2024-EF7
C/2022 W2 (ATLAS),e,63.5000,320.4339,123.3197,342.4797,0.0001555,0.99087497,0.0000,03/08.7264/2023,2000,g 11.5,4.0
# From MPEC 2024-C04
C/2022 W3 (Leonard),e,103.5834,132.3082,116.5099,277.8165,0.0002128,0.99497255,0.0000,06/22.8361/2023,2000,g 13.0,4.0
# From MPEC 2023-M14
C/2022 Y1 (Hogan),e,18.8560,285.8746,174.8917,12.61761,0.0219907,0.76534015,21.6672,08/09.0/2025,2000,g  9.0,4.0
# From MPEC 2023-TM6
C/2022 Y2 (Lemmon),e,165.8959,216.3865,105.5010,19.74049,0.0112374,0.87120714,9.7825,08/09.0/2025,2000,g 13.5,4.0
# From MPEC 2024-GJ3
C/2023 A1 (Leonard),e,94.7427,318.2611,159.2673,221.2967,0.0002994,0.99170207,0.0000,03/18.5713/2023,2000,g 14.5,4.0
# From MPEC 2023-J95
C/2023 A2 (SWAN),e,94.7056,94.5108,142.4868,403.3954,0.0001216,0.99765804,0.0000,01/20.3637/2023,2000,g 13.5,4.0
# From MPEC 2025-PB3
C/2023 A3 (Tsuchinshan-ATLAS),h,09/27.7439/2024,139.1110,21.5800,308.5144,1.000132,0.391552,2000,6.5,3.2
# From MPEC 2024-F34
P/2023 B1 (PANSTARRS),e,14.5883,78.5603,81.7362,7.066669,0.0524665,0.13102873,43.4306,08/09.0/2025,2000,g  5.5,4.0
# From MPEC 2023-XP6
C/2023 B2 (ATLAS),e,40.7664,218.0851,317.3628,597.5493,0.0000675,0.99708750,0.0000,03/10.6324/2023,2000,g 14.5,4.0
# From MPEC 2023-F81
P/2023 B3 (PANSTARRS),e,9.1564,153.9833,240.3914,4.550633,0.1015304,0.12229754,182.5651,08/09.0/2025,2000,g 10.5,4.0
# From MPEC 2025-PB3
C/2023 C2 (ATLAS),e,48.3220,301.0050,357.4441,2319,0.0000088,0.99897881,0.0000,11/16.7742/2024,2000,g  7.0,4.0
# From MPEC 2024-D33
C/2023 E1 (ATLAS),e,38.2822,164.5227,105.9429,19.24051,0.0116783,0.94659971,8.9943,08/09.0/2025,2000,g 15.5,4.0
# From MPEC 2023-N01
C/2023 F1 (PANSTARRS),e,131.6967,25.3062,216.7319,243.6034,0.0002592,0.99297884,0.0000,06/28.0469/2023,2000,g 16.0,4.0
# From MPEC 2025-OF9
C/2023 F3 (ATLAS),h,02/02.6170/2025,145.9634,109.4665,265.5332,1.003293,5.190801,2000,6.0,4.0
# From MPEC 2025-PB3
C/2023 H1 (PANSTARRS),e,21.7831,292.6468,333.7479,750.1511,0.0000480,0.99407120,0.0000,11/28.6122/2024,2000,g  8.5,4.0
# From MPEC 2024-GJ3
C/2023 H2 (Lemmon),e,113.7457,217.0781,150.6937,248.1456,0.0002521,0.99639159,0.0000,10/29.1568/2023,2000,g 14.0,4.0
# From MPEC 2025-OF9
C/2023 H3 (PANSTARRS),e,2.4884,55.0903,193.2549,13.61614,0.0196166,0.61579917,10.5495,08/09.0/2025,2000,g 10.0,4.0
# From MPEC 2023-SQ0
A/2023 H4,e,76.5675,230.8265,65.0155,141.1417,0.0005878,0.98494967,0.0000,08/08.6406/2023,2000,g 18.0,2.0
# From MPEC 2025-PB3
C/2023 H5 (Lemmon),h,06/30.3006/2025,97.8552,159.4780,60.1031,1.000455,4.312596,2000,7.0,4.0
# From MPEC 2024-UA9
P/2023 JN16 (Lemmon),e,3.7018,11.8664,353.2627,2.696444,0.2225958,0.14706282,49.2049,08/09.0/2025,2000,g 14.0,4.0
# From MPEC 2024-GJ3
C/2023 K1 (ATLAS),e,137.9976,223.6980,337.4152,609.0002,0.0000656,0.99665237,0.0000,09/07.5391/2023,2000,g 13.0,4.0
# From MPEC 2023-N01
P/2023 M1 (PANSTARRS),e,12.2888,216.8599,79.7002,6.840479,0.0550902,0.58674301,33.2586,08/09.0/2025,2000,g 13.5,4.0
# From MPEC 2024-TD8
P/2023 M2 (PANSTARRS),e,19.7255,83.2523,243.5481,5.582928,0.0747155,0.36991518,55.5287,08/09.0/2025,2000,g 12.5,4.0
# From MPEC 2024-TP3
P/2023 M4 (ATLAS),e,7.5919,296.2823,320.4973,5.445785,0.0775556,0.27893140,94.1151,08/09.0/2025,2000,g  7.5,4.0
# From MPEC 2024-MB8
C/2023 P1 (Nishimura),e,132.4781,66.8292,116.2452,56.34397,0.0023304,0.99601892,0.0000,09/17.6098/2023,2000,g 10.0,4.0
# From MPC185657
C/2023 Q1 (PANSTARRS),h,12/01.1233/2024,36.6453,7.1235,84.4190,1.004931,2.575838,2000,10.0,4.0
# From MPEC 2024-N80
C/2023 Q2 (PANSTARRS),e,104.0621,92.6801,171.6864,342.2447,0.0001557,0.99062379,0.0000,06/23.9261/2024,2000,g 11.5,4.0
# From MPEC 2025-PB3
C/2023 R1 (PANSTARRS),h,04/13.4585/2026,149.3168,62.5632,144.2709,1.002293,3.569868,2000,6.0,4.0
# From MPEC 2024-L77
C/2023 R2 (PANSTARRS),h,08/12.1659/2024,30.6899,188.8947,337.3154,1.000289,0.905027,2000,10.5,4.0
# From MPEC 2023-UR6
A/2023 R3,e,12.0797,347.3378,86.9518,726.0359,0.0000504,0.99812834,0.0000,12/18.1767/2023,2000,g 20.0,2.0
# From MPEC 2024-YC7
C/2023 RN3 (ATLAS),e,10.3511,207.0633,130.6231,10.16856,0.0303959,0.49046907,28.3129,08/09.0/2025,2000,g  7.5,4.0
# From MPC184411
C/2023 RS61,e,19.9451,347.0227,119.4258,11.89907,0.0240124,0.32790375,330.9341,08/09.0/2025,2000,g  6.8,4.0
# From MPC185658
P/2023 S1 (PANSTARRS),e,9.1577,317.2901,180.3097,3.843854,0.1307838,0.31845957,21.6856,08/09.0/2025,2000,g 11.5,4.0
# From MPEC 2023-XP6
C/2023 S2 (ATLAS),e,19.6482,229.4462,78.9699,163.1094,0.0004731,0.99348928,0.0000,10/15.2277/2023,2000,g 15.0,4.0
# From MPEC 2024-P23
C/2023 S3 (Lemmon),e,140.4927,233.8212,281.5258,28.41404,0.0065074,0.97081880,0.0000,01/19.6526/2024,2000,g 16.0,4.0
# From MPEC 2024-BE0
P/2023 T1 (PANSTARRS),e,6.6123,249.5759,202.8692,4.225814,0.1134589,0.33320847,50.2771,08/09.0/2025,2000,g 14.0,4.0
# From MPEC 2024-GJ3
C/2023 T2 (Borisov),e,48.5895,317.5253,111.2196,223.6920,0.0002946,0.99107507,0.0000,12/22.7357/2023,2000,g 14.5,4.0
# From MPEC 2025-PB3
C/2023 T3 (Fuls),e,27.2213,246.0020,302.8480,871.7876,0.0000383,0.99592985,0.0000,01/25.3606/2025,2000,g  8.5,4.0
# From MPEC 2025-OF9
C/2023 TD22 (Lemmon),e,170.4897,5.5660,32.5422,48.37052,0.0029298,0.95127975,0.9571,08/09.0/2025,2000,g 12.5,4.0
# From MPEC 2025-PB3
C/2023 U1 (Fuls),e,108.1463,305.8029,255.6483,2705,0.0000070,0.99816137,0.0000,10/12.9590/2024,2000,g  8.0,4.0
# From MPEC 2025-PB3
C/2023 V1 (Lemmon),h,07/13.0483/2025,102.0134,15.0439,103.3160,1.000431,5.092580,2000,8.5,4.0
# From MPC184411
P/2023 V2 (PANSTARRS),e,9.8883,95.4740,330.5163,7.218962,0.0508150,0.56999283,28.0681,08/09.0/2025,2000,g 13.5,4.0
# From MPEC 2024-A43
C/2023 V3 (PANSTARRS),e,40.6896,91.2902,291.8247,12.80514,0.0215094,0.64927185,15.8529,08/09.0/2025,2000,g 11.5,4.0
# From MPC185658
C/2023 V4 (Camarasa-Duszanowicz),h,05/30.3999/2024,67.1243,66.3270,50.8715,1.001185,1.121918,2000,12.0,4.0
# From MPEC 2024-GJ3
C/2023 V5 (Leonard),h,12/13.9151/2023,73.5450,31.5138,56.9697,1.009434,0.846314,2000,21.5,4.0
# From MPEC 2025-A40
P/2023 V6 (PANSTARRS),e,3.9734,189.6070,192.3245,5.291638,0.0809690,0.17540392,79.5840,08/09.0/2025,2000,g 11.5,4.0
# From MPEC 2024-GJ3
C/2023 X1 (Leonard),e,110.5893,136.9875,321.4689,155.5994,0.0005078,0.99388676,0.0000,10/17.9528/2023,2000,g 13.5,3.2
# From MPC185658
C/2023 X2 (Lemmon),h,12/28.2506/2025,76.9812,66.3019,64.7744,1.000037,5.088646,2000,8.5,3.2
# From MPEC 2024-A43
P/2023 X3 (PANSTARRS),e,4.4833,62.0142,40.8761,4.245999,0.1126508,0.28618343,53.3760,08/09.0/2025,2000,g 15.5,4.0
# From MPC184411
C/2023 X4 (Hogan),e,11.5932,28.7700,100.5961,9.923286,0.0315298,0.63131801,13.9018,08/09.0/2025,2000,g 12.0,4.0
# From MPEC 2024-DA2
C/2023 X7 (PANSTARRS),h,05/15.2518/2025,69.1026,119.1986,354.4052,1.002107,4.820370,2000,9.0,4.0
# From MPEC 2024-JU4
P/2023 Y1 (Gibbs),e,6.3839,78.8560,51.4812,3.750461,0.1356991,0.44538482,83.8695,08/09.0/2025,2000,g 17.0,4.0
# From MPEC 2025-A40
P/2023 Y2 (Gibbs),e,6.9926,79.2292,16.9089,3.747465,0.1358619,0.39226833,99.1615,08/09.0/2025,2000,g 15.5,4.0
# From MPC185658
C/2024 A1 (ATLAS),h,06/13.5948/2025,94.4805,112.1350,353.2904,1.002615,3.875233,2000,7.0,4.0
# From MPC182881
C/2024 A2 (ATLAS),e,119.1137,78.1643,295.4893,32.23140,0.0053862,0.94169192,2.5165,08/09.0/2025,2000,g 12.5,4.0
# From MPEC 2025-OF9
C/2024 B1 (Lemmon),h,10/07.7261/2024,70.9029,79.1882,66.2188,1.001043,1.633817,2000,13.0,4.0
# From MPEC 2025-A40
C/2024 B2 (Lemmon),e,99.8713,294.3870,130.3305,1724,0.0000138,0.99763438,0.0000,10/05.7448/2023,2000,g 11.5,4.0
# From MPC185658
C/2024 C1 (PANSTARRS),e,14.2269,83.8095,94.4913,10.58405,0.0286237,0.58306339,9.8154,08/09.0/2025,2000,g 11.5,4.0
# From MPEC 2024-JU4
C/2024 C2 (PANSTARRS),e,27.2844,66.4463,87.5804,16.23143,0.0150719,0.44604917,2.2699,08/09.0/2025,2000,g  6.0,4.0
# From MPC184412
C/2024 C3 (PANSTARRS),e,22.4537,359.7050,159.6970,11.66986,0.0247233,0.42474845,15.8016,08/09.0/2025,2000,g  9.0,4.0
# From MPEC 2024-Q20
C/2024 C4 (ATLAS),e,79.2827,220.6688,321.4952,83.36697,0.0012948,0.98236263,0.0000,01/30.1911/2024,2000,g 14.5,4.0
# From MPC185658
C/2024 D1 (Lemmon),e,132.4495,179.6601,125.7807,9963,0.0000010,0.99932823,0.0000,12/03.4231/2027,2000,g  7.3,4.0
# From MPEC 2025-PB3
C/2024 E1 (Wierzchos),h,01/20.7673/2026,75.2394,108.0799,243.6317,1.000066,0.566015,2000,7.0,4.0
# From MPEC 2024-JU4
C/2024 E2 (Bok),e,155.6507,135.6556,358.1503,51.45398,0.0026704,0.85043699,1.7456,08/09.0/2025,2000,g  8.0,4.0
# From MPEC 2024-JU4
P/2024 F1 (PANSTARRS),e,7.0052,251.5413,229.5795,3.444101,0.1542021,0.45999882,100.7245,08/09.0/2025,2000,g 16.0,4.0
# From MPEC 2025-OF9
